METHANESAT              
1 59101U 24043D   25138.07011505  .00003395  00000+0  31355-3 0  9996
2 59101  97.7964 264.2959 0009826 245.8414 114.1779 14.95246496 65551
